"DapipId","OpeId","IpedsUnitIds","LocationName","ParentName","ParentDapipId","LocationType","Address","GeneralPhone","AdminName","AdminPhone","AdminEmail","Fax","UpdateDate","zip","zipshrt","lon","lat"
101435043,"32098820","434964","University of Phoenix - West Florida Campus","University of Phoenix","101435","Additional Location","12802 Tampa Oaks Boulevard, #200, Temple Terrace, FL 33637","","","","",NA,"","33637","33637",-82.3556799,28.0630204
101435366,"","","University of Phoenix at St. Petersburg/Clearwater Learning Center","University of Phoenix","101435","Additional Location","1901 Ulmerton Road, Clearwater, FL 33762-3311","","","","",NA,"2/1/2013 0:00","33762-3311","33762",-82.6588418,27.8947357
101435377,"","","University of Phoenix at Westshore Learning Center - Tampa","University of Phoenix","101435","Additional Location","4805 W. Independence Parkway, Tampa, FL 33634-7527","","","","",NA,"","33634-7527","33634",-82.5472817,27.9778052
108843004,"","","National Intelligence University at U.S. Central Command","National Intelligence University","108843","Additional Location","7115 South Boundary Blvd., MacDill AFB, FL 33621-5101","","","","",NA,"","33621-5101","33621",-82.5089634,27.8498222
108968098,"145942","449038","Strayer University - Tampa Westshore Campus","Strayer University","108968","Additional Location","4902 Eisenhower Boulevard, Suite 100, Tampa, FL 33634","","","","",NA,"","33634","33634",-82.5468202,27.9901772
108968099,"","","Strayer University - Tampa East Campus","Strayer University","108968","Additional Location","5650 Breckenridge Park Drive, Suite 300, Tampa, FL 33610","","","","",NA,"","33610","33610",-82.35998,27.997382
108968128,"","","Strayer University at Verizon Wireless, Tampa","Strayer University","108968","Additional Location","6550 W. Hillsborough Ave., Tampa, FL 33634","","","","",NA,"","33634","33634",-82.5533333,27.994379
109059012,"","","USF St. Petersburg","Barry University","109059","Additional Location","University Center 9200 113 Street N, Seminole, FL 33772","","","","",NA,"","33772","33772",-82.7986615,27.8579032
109095003,"","","GUTI The Premier Beauty and Wellness Academy","GUTI, The Premier Beauty and Wellness Academy - Bradenton","109095","Additional Location","1026 East Brandon Boulevard, Brandon, FL 33511","","","","",NA,"","33511","33511",-82.268013,27.938802
109208,"147300","133085","Clearwater Christian College","-","-","Institution","3400 Gulf to Bay Blvd, Clearwater, FL 33759-4595","7277261153, ext. 225","RICHARD A. STRATTON","7277261153, ext. 228","dickstratton@clearwater.edu",7277268597,"","33759-4595","33759",-82.6976472,27.9642297
109253,"148700","133492","Eckerd College","-","-","Institution","4200 54th Avenue South, Saint Petersburg, FL 33711-4700","7278671166","Donald R. Eastman III","","",NA,"","33711-4700","33711",-82.6864615,27.7147288
109350,"148200","133809","Florida College","-","-","Institution","119 N Glen Arven Ave, Temple Terrace, FL 33617-5578","8139885131","Harry E. Payne","8139885131","president@floridacollege.edu",8138996772,"5/1/2014 0:00","33617-5578","33617",-82.3835582,28.0333985
109387,"2172700","133863","Concorde Career Institute","-","-","Institution","4202 W. Spruce Street, Tampa, FL 33607","8138740094","Raymond Nunziata Jr.","8138740094","rnunziata@concorde.edu",8138726884,"","33607","33607",-82.514454,27.959068
109457015,"2305805","487427","Florida Career College - Riverview","Florida Career College - Miami","109457","Additional Location","9950 Princess Palm Avenue, Suite 100, Tampa, FL 33619","","","","",NA,"","33619","33619",-82.3369261,27.9806496
109457016,"2586200","364885","Florida Career College - Clearwater","Florida Career College - Miami","109457","Additional Location","410 Park Place Blvd, Clearwater, FL 33759","","","","",NA,"12/31/2014 0:00","33759","33759",-82.7270748,27.9625804
109493006,"","","Florida Technical College","Florida Technical College","109493","Additional Location","1111 North Westshore Blvd., Suite 110, Tampa, FL 33607","","","","",NA,"11/7/2018 0:00","33607","33607",-82.5234085,27.9536705
109518006,"","","University of Florida -St. Petersburg Campus","University of Florida","109518","Additional Location","9200 113th Street, N, St. Petersburg, FL 33772","","","","",NA,"","33772","33772",-82.7986615,27.8579032
109590,"787000","134495","Hillsborough Community College","-","-","Institution","4115 North Lois Avenue, Tampa, FL 33614","8132537000","Ken Atwater","8132537050","katwater@hccfl.edu",NA,"2/17/2023 0:00","33614","33614",-82.5126643,27.976724
109590005,"","","Dale Mabry","Hillsborough Community College","109590","Additional Location","4001 Tampa Bay Boulevard, Tampa, FL 33614","","","","",NA,"","33614","33614",-82.5092816,27.9761759
109590006,"","","Brandon","Hillsborough Community College","109590","Additional Location","10414 E Columbus Dr, Brandon, FL 33619","","","","",NA,"","33619","33619",-82.3284713,27.9702195
109590008,"","","Plant City","Hillsborough Community College","109590","Additional Location","1206 N Park Rd, Plant City, FL 33566","","","","",NA,"","33566","33566",-82.1030339,28.0260852
109590009,"","","Ybor City","Hillsborough Community College","109590","Additional Location","2112 N 15th St, Tampa, FL 33605","","","","",NA,"","33605","33605",-82.4432839,27.9630091
109624,"2279600","134574","Cortiva Institute - Florida","-","-","Institution","2370 34th St. N., St. Petersburg, FL 33713","7275415200, ext. 10","SHERRY FEARS","7275415200, ext. 16","sfears1@tampabay.rr.com",7275450053,"8/1/2017 0:00","33713","33713",-82.6801237,27.7935962
109660002,"","","Art Institute of Tampa","Miami International University of Art and Design","109660","Additional Location","4401 North Himes Avenue Suite 150, Tampa, FL 33614-7001","","","","",NA,"","33614-7001","33614",-82.5004407,27.9822927
109712014,"2151903","420741","Keiser University - Sarasota","Keiser University","109712","Additional Location","6151 Lake Osprey Dr., Sarasota, FL 34240","","","","",NA,"","34240","34240",-82.4457769,27.3845325
109712017,"","","Keiser University - Tampa","Keiser University","109712","Additional Location","5002 W. Waters Avenue, Tampa, FL 33634","","","","",NA,"","33634","33634",-82.5294327,28.0248903
109828,"1016100","135337","Loraine?s Academy, Inc.","-","-","Institution","1012 58th St N, Saint Petersburg, FL 33710","7273474247, ext. 105","NANCY B FORDHAM","7273474247, ext. 103","nfordham@lorainesacademy.edu",NA,"","33710","33710",-82.7138487,27.7831842
109855,"561200","135407","Manatee Technical College","-","-","Institution","6305 State Road 70 East, Bradenton, FL 34203","9417517900","MARY CANTRELL","9417517900, ext. 2012","cantrellm@fc.manatee.k12.fl.us",9417517927,"","34203","34203",-82.4758647,27.4461213
109855002,"","","Manatee Technical Institute - East Campus","Manatee Technical College","109855","Additional Location","5520 Lakewood Ranch Blvd., Bradenton, FL 34211","","","","",NA,"2/1/2019 0:00","34211","34211",-82.4330412,27.4439563
109855003,"","","Manatee Technical Institute - North Campus","Manatee Technical College","109855","Additional Location","801 9th Street West, Palmetto, FL 34221","","","","",NA,"","34221","34221",-82.5739478,27.519771
109864,"2148300","135416","Manhattan Hairstyling Academy","-","-","Institution","4315 South Manhattan Avenue, Tampa, FL 33611","8132580505","ROBERT E VALDEZ","8132580505","",NA,"1/1/1900 0:00","33611","33611",-82.5188085,27.9016991
109864002,"2148304","","Manhattan Hairstyling Academy","Manhattan Hairstyling Academy","109864","Additional Location","6401 West Waters Avenue, Tampa, FL 33634","","","","",NA,"","33634","33634",-82.5504734,28.0266324
109864003,"2148301","","Manhattan Hairstyling Academy","Manhattan Hairstyling Academy","109864","Additional Location","2317 East Fletcher Avenue, Tampa, FL 33612","","","","",NA,"","33612","33612",-82.4307995,28.0688357
109864005,"2148303","","Manhattan Hairstyling Academy","Manhattan Hairstyling Academy","109864","Additional Location","2800 North MacDill Avenue, Suites Q & R, Tampa, FL 33607","","","","",NA,"","33607","33607",-82.4936483,27.9665441
109961,"3026508","135939","Remington College - Tampa Campus","-","-","Institution","6302 E. Dr. Martin Luther King Jr Blvd., Suite 400, Tampa, FL 33619","8139355700","WILLIAM POLMEAR","8139355700, ext. 211","WILLIAM.POLMEAR@REMINGTONCOLLEGE.EDU",8139357415,"","33619","33619",-82.3856978,27.9839403
110024,"2305700","136075","Fortis College - Tampa","-","-","Institution","3910 US Hwy 301 N, Suite 200, Tampa, FL 33619","8136201446","TODD MATTHEWS","8136201446","tmatthews@webstercollege.com",NA,"12/31/2013 0:00","33619","33619",-82.3777335,27.9363828
110158005,"","","Porter Campus","Pasco-Hernando State College","110158","Additional Location","Wiregrass Ranch 2727 Mansfield Blvd, Wesley Chapel, FL 33543","","","","",NA,"","33543","33543",-82.328616,28.1911571
110176,"560500","136491","Pinellas Technical College - Clearwater Campus","-","-","Institution","6100 154th Avenue, North, Clearwater, FL 33760","7275387167","Jakub Prokop","7275387167, ext. 1006","PROKOPJ@pcsb.org",7275244445,"8/12/2014 0:00","33760","33760",-82.7178537,27.9103828
110194,"","136552","Poynter Institute for Media Studies","-","-","Institution","801 Third Street South, St. Petersburg, FL 33701","7278219494","","","",NA,"","33701","33701",-82.6373651,27.7621202
110316010,"","","MacDill Education Office","Saint Leo University","110316","Additional Location","8102 Condor St Suite 116, MacDill AFB, FL 33621","","","","",NA,"","33621","33621",-82.4894488,27.8504749
110316017,"","","St. Petersburg Education Office","Saint Leo University","110316","Additional Location","9200 113th St N #128 University Partnership Center, Seminole, FL 33772","","","","",NA,"","33772","33772",-82.7986615,27.8579032
110316018,"","","Ctr for Online Learning","Saint Leo University","110316","Additional Location","9417 Princess Palm Ave Suite 150, Tampa, FL 33619","","","","",NA,"","33619","33619",-82.3425187,27.9788589
110316033,"","","Saint Petersburg Catholic High School","Saint Leo University","110316","Additional Location","6333 9th Avenue North, Saint Petersburg,, FL 33710","","","","",NA,"","33710","33710",-82.7213526,27.7816667
110316034,"","","Tampa Catholic High School","Saint Leo University","110316","Additional Location","4630 North Rome Avenue, Tampa, FL 33603","","","","",NA,"","33603","33603",-82.4776448,27.9873655
110316037,"","","Tampa Education Center","Saint Leo University","110316","Additional Location","1120 East Kennedy Boulevard - Suite 238, Tampa, FL 33602","","","","",NA,"","33602","33602",-82.4478585,27.9508695
110316044,"","","Tech Data Corporation","Saint Leo University","110316","Additional Location","5350 Tech Data Drive, Clearwater, FL 33760","","","","",NA,"","33760","33760",-82.707835,27.917127
110325,"152800","137078","St. Petersburg College","-","-","Institution","P. O. Box 13489, Largo, FL 33760","7273413781","Tonjua Williams","7273413214","williams.tonjua@spcollege.edu",NA,"12/3/2018 0:00","33760","33760",-82.7873244,27.9094665
110325004,"152805","","Health Education Center","St. Petersburg College","110325","Additional Location","7200 66th St. N., Pinellas Park, FL 33781","","","","",NA,"","33781","33781",-82.7301623,27.8380099
110325012,"152801","","Clearwater Campus","St. Petersburg College","110325","Additional Location","2465 Drew St, Clearwater, FL 33765-2816","","","","",NA,"","33765-2816","33765",-82.7353674,27.965123
110325013,"152807","","Seminole Campus","St. Petersburg College","110325","Additional Location","9200 113th St N, Seminole, FL 33772-2800","","","","",NA,"","33772-2800","33772",-82.7986615,27.8579032
110325014,"152802","","St. Petersburg Campus","St. Petersburg College","110325","Additional Location","6605 Fifth Ave N, St. Petersburg, FL 33710-4772","","","","",NA,"","33710-4772","33710",-82.7300569,27.7779116
110325016,"152806","","Allstate Center","St. Petersburg College","110325","Additional Location","3200 34th St S, St. Petersburg, FL 33711-3829","","","","",NA,"","33711-3829","33711",-82.6781813,27.7383543
110325017,"","","Downtown Center","St. Petersburg College","110325","Additional Location","201 4th St N, St. Petersburg, FL 33701","","","","",NA,"","33701","33701",-82.6381939,27.7737833
110325019,"","","ICOT Corporate Training Center","St. Petersburg College","110325","Additional Location","14044 ICOT Blvd, Clearwater, FL 33760","","","","",NA,"","33760","33760",-82.7161296,27.8995091
110325020,"","","Young-Rainey STAR Center","St. Petersburg College","110325","Additional Location","7887 Bryan Dairy Rd, Largo, FL 33777","","","","",NA,"","33777","33777",-82.7489046,27.8735204
110334,"2115300","137087","Pinellas Technical College - St. Petersburg Campus","-","-","Institution","901 34th Street, South, Saint Petersburg, FL 33711","7278932500","Boe Norwood","7278932500, ext. 1023","norwoods@pcsb.org",NA,"9/7/2014 0:00","33711","33711",-82.6821868,27.7605662
110334003,"","","Pinellas Technical College - St. Petersburg Campus, Tomlinson Adult Learning Center","Pinellas Technical College - St. Petersburg Campus","110334","Additional Location","296 Mirror Lake Drive North, St. Petersburg, FL 33701","","","","",NA,"","33701","33701",-82.6440402,27.7750666
110422,"153700","137351","University of South Florida","-","-","Institution","4202 East Fowler Ave, Tampa, FL 33620-9951","8139742011","DR. JUDY GENSHAFT","8139743350","JGensha@admin.usf.edu",NA,"","33620-9951","33620",-82.4102342,28.0557999
110422002,"153701","448840","USF St. Petersburg","University of South Florida","110422","Additional Location","140 7th Ave South, St Petersburg, FL 33701","","","","",NA,"","33701","33701",-82.6350207,27.7633053
110422003,"","","USF Tampa (USF Health)","University of South Florida","110422","Additional Location","13301 N. Bruce B. Downs Boulevard, Tampa, FL 33612-3807","","","","",NA,"","33612-3807","33612",-82.4229504,28.0681181
110477003,"153101","","SU Coll of Law","Stetson University","110477","Additional Location","1401 61st Street South, Gulfport, FL 33707-3299","","","","",NA,"","33707-3299","33707",-82.7175736,27.7565553
110486003,"","","Southeastern University School of Divinity at Bayside Community Church","Southeastern University","110486","Additional Location","15800 FL-64, Bradenton, FL 34212","","","","",NA,"","34212","34212",-82.3820547,27.4729149
110501,"2337000","137625","Suncoast II the Tampa Bay School of Massage Therapy LLC","-","-","Institution","2005 Pan Am Circle Suite 100, Tampa, FL 33607","8132871099","James Saunders","8132871099","jsaunders@suncoastii.com",8132871914,"","33607","33607",-82.5124566,27.9609612
110565,"153800","137847","The University of Tampa","-","-","Institution","401 W Kennedy Blvd, Tampa, FL 33606-1490","8132533333","RONALD L VAUGHN","8132536211","",NA,"","33606-1490","33606",-82.4672356,27.9468758
111188016,"1303908","449898","South University Tampa","South University","111188","Additional Location","Parkside at Tampa Bay Park 4401 N Hines Ave, Tampa, FL 33614","","","","",NA,"","33614","33614",-82.4981097,27.9826491
113704021,"","","Moody Bible Institute at Christ Community Church","Moody Bible Institute","113704","Additional Location","6202 N. Himes Avenue, Tampa, FL 33614","","","","",NA,"1/1/2014 0:00","33614","33614",-82.5015575,28.0041881
113777013,"173308","","National Louis University - Florida Regional Campus","National Louis University","113777","Additional Location","4950 W. Kennedy Blvd., Suite 300, Tampa, FL 33609","","","","",NA,"1/14/2014 0:00","33609","33609",-82.5278895,27.9444344
113777048,"","","National Louis University at Countryside High School","National Louis University","113777","Additional Location","3000 State Road 580, Clearwater, FL 33761","","","","",NA,"3/28/2014 0:00","33761","33761",-82.7124153,28.0226199
113777049,"","","National Louis University at Oak Grove Middle School","National Louis University","113777","Additional Location","1370 South Belcher Road, Clearwater, FL 33764","","","","",NA,"","33764","33764",-82.7474411,27.9473527
113777076,"","","National Louis University at Manatee Technical Institute","National Louis University","113777","Additional Location","5530 Lakewood Ranch Blvd., Lakewood Ranch, FL 34211","","","","",NA,"","34211","34211",-82.4335915,27.4433933
113777077,"","","National Louis University at Pine View Middle School","National Louis University","113777","Additional Location","5334 Parkway Boulevard, Land O'Lakes, FL 34639-3801","","","","",NA,"3/28/2014 0:00","34639-3801","34639",-82.4277812,28.2352412
113777103,"","","National Louis University at Wilson Elementary","National Louis University","113777","Additional Location","702 English Street, Plant City, FL 33563","","","","",NA,"","33563","33563",-82.1292438,28.028467
113777165,"","","National Louis University at Bayside High School","National Louis University","113777","Additional Location","14405 49th Street North, Clearwater, FL 33762","","","","",NA,"1/10/2013 0:00","33762","33762",-82.6994252,27.9031386
113777172,"","","National Louis University at East Bay High School","National Louis University","113777","Additional Location","7710 Old Big Bend Road, Gibsonton, FL 33534","","","","",NA,"1/10/2013 0:00","33534","33534",-82.3632729,27.7948682
113777202,"","","National Louis University at Starkey Elementary School","National Louis University","113777","Additional Location","9300 86th Avenue, Seminole, FL 33777","","","","",NA,"1/10/2013 0:00","33777","33777",-82.7682519,27.8481338
113777337,"","","National Louis University at Florida Regional Center","National Louis University","113777","Additional Location","5110 Eisenhower Blvd., Tampa, FL 33634","","","","",NA,"","33634","33634",-82.5469053,27.9930483
113777339,"","","National Louis University at Osceola Middle School","National Louis University","113777","Additional Location","9301 98th Street N, Seminole, FL 33777","","","","",NA,"","33777","33777",-82.7734774,27.856131
113777359,"","","National Louis University at Florida Regional Center","National Louis University","113777","Additional Location","5110 Eisenhower Blvd., Tampa, FL 33634","","","","",NA,"","33634","33634",-82.5469053,27.9930483
113777366,"","","National Louis University at Manatee School District Professional Support Center","National Louis University","113777","Additional Location","2501 63rd St. E, Bradenton, FL 34203","","","","",NA,"","34203","34203",-82.4810102,27.4387524
113777368,"","","National Louis University at Scott Lake Elementary","National Louis University","113777","Additional Location","1140 East County Road 540 A, Lakeland, FL 33813","","","","",NA,"","33813","33813",-81.9444191,27.9528852
113777391,"","","Largo High School","National Louis University","113777","Additional Location","410 Missouri Avenue North, Largo, FL 33770","","","","",NA,"","33770","33770",-82.785102,27.9202936
113777392,"","","Riverview High School","National Louis University","113777","Additional Location","11311 Boyette Road, Riverview, FL 33569","","","","",NA,"","33569","33569",-82.3121008,27.8498405
113777394,"","","Florida Regional Center","National Louis University","113777","Additional Location","5110 Sunforest Drive, Suite 102, Tampa, FL 33634","","","","",NA,"","33634","33634",-82.5469068,27.993205
113777400,"","","Plant City High School","National Louis University","113777","Additional Location","1 Raider Place, Plant City, FL 33563","","","","",NA,"","33563","33563",-82.1271597,27.9913757
113777401,"","","Gibb's High School","National Louis University","113777","Additional Location","850 34th Street South, St. Petersburg, FL 33771","","","","",NA,"","33771","33771",-82.6780903,27.7612137
114114081,"","","University of St. Francis at St. Joseph Hospital","University of St. Francis","114114","Additional Location","3001 W. Martin Luther King Jr Blvd, Tampa, FL 33607","","","","",NA,"11/9/2012 0:00","33607","33607",-82.4911306,27.9822844
114114087,"","","University of St. Francis at Hillsborogh Community College MacDill Center","University of St. Francis","114114","Additional Location","8102 Condor St., MacDill AFB, FL 33584","","","","",NA,"","33584","33584",-82.4894468,27.8504727
114114088,"","","University of St. Francis at Hillsborogh CC Dale Mabry Campus","University of St. Francis","114114","Additional Location","4001 W. Tampa Bay Blvd., Tampa, FL 33614","","","","",NA,"","33614","33614",-82.5092816,27.9761759
114114089,"","","University of St. Francis at Hillsborogh Community College Ybor City Campus","University of St. Francis","114114","Additional Location","2112 N. 15th Street, Tampa, FL 33605","","","","",NA,"","33605","33605",-82.4432839,27.9630091
115214041,"732952","450207","ITT Technical Institute - St. Petersburg","ITT Technical Institute - Indianapolis","115214","Additional Location","4809 Memorial Highway, Tampa, FL 33634","","","","",NA,"","33634","33634",-82.5476,27.9823569
115214108,"732910","134909","ITT Technical Institute - Tampa","ITT Technical Institute - Indianapolis","115214","Additional Location","4809 Memorial Hwy, Tampa, FL 33634-7350","","","","",NA,"","33634-7350","33634",-82.5476,27.9823569
115214121,"10732933","470852","ITT Technical Institute - University Park","ITT Technical Institute - Indianapolis","115214","Additional Location","8039 Cooper Creek Boulevard, Bradenton, FL 34201","","","","",NA,"3/15/2015 0:00","34201","34201",-82.4531578,27.3975657
117496002,"3083702","406024","Galen College of Nursing - Tampa Bay","Galen College of Nursing","117496","Additional Location","11101 Roosevelt Blvd., Saint Petersburg, FL 33716","","","","",NA,"","33716","33716",-82.6509809,27.8746198
118879009,"","","Pasco Baptist Assoc","New Orleans Baptist Theological Seminary","118879","Additional Location","2537 Henley Blvd, Lutz, FL 33548","","","","",NA,"","33548","33548",-82.4806907,28.1340975
119155002,"","","LaSalle Tech","LaSalle Tech","119155","Additional Location","631 East Alexander Street, Plant City, FL 33563","","","","",NA,"","33563","33563",-82.1187829,27.9880567
120458003,"","","Uniformed Services University of the Health Sciences at James A. Healy Veterans Hospital","Uniformed Services University of the Health Sciences","120458","Additional Location","Grand Oak Plaza (118M), 8900 Grand Oak Circle, Tampa, FL 33637","","","","",NA,"","33637","33637",-82.3575945,28.0720118
121895006,"","","Springfield College SHS Tampa Campus","Springfield College","121895","Additional Location","10117 Princess Palm Avenue, 2nd Floor, Tampa, CA 33610","","","","",NA,"","33610","33610",-82.4571776,27.950575
123004038,"","","Northwood University at Coast Guard I","Northwood University","123004","Additional Location","1300 Beach Drive South East, St. Petersburg, FL 33701-5622","","","","",NA,"11/9/2012 0:00","33701-5622","33701",-82.6308502,27.7580829
123235006,"","","Thomas M. Cooley Law School Tampa Bay Campus","Western Michigan University Thomas M. Cooley Law School","123235","Additional Location","9401 Camden Field Parkway, Riverview, FL 33578","","","","",NA,"","33578","33578",-82.350477,27.908956
123341023,"","","Thomas M. Cooley Law School - Riverview","Western Michigan University","123341","Additional Location","9445 Camden Field Parkway, Riverview, FL 33578","","","","",NA,"","33578","33578",-82.3508143,27.9092524
123785081,"1049080","476115","Regency Beauty Institute - Tampa","Regency Beauty Institute","123785","Additional Location","14360-62 N. Dale Mabry Highway, Tampa, FL 33609","","","","",NA,"","33609","33609",-82.5059587,27.9451027
126386088,"","","Webster University at Tampa Bay Metropolitan","Webster University","126386","Additional Location","11201 Corporate Circle North, Suite 140, St. Petersburg, FL 33716","","","","",NA,"","33716","33716",-82.6543238,27.8734518
126386096,"","","Webster University at Lakeland Metropolitan","Webster University","126386","Additional Location","101 West Main Street City Center,  Suite 150, Lakeland, FL 33815","","","","",NA,"3/15/2010 0:00","33815","33815",-81.9916586,28.0482439
126386124,"","","Sarasota Metropolitan","Webster University","126386","Additional Location","8043 Cooper Creek Blvd., #101, University Park, FL 34201","","","","",NA,"","34201","34201",-82.4523109,27.3977198
126386133,"","","Lakeland Metropolitan","Webster University","126386","Additional Location","1479 Towne Center Dr., Suite 202, Lakeland, FL 33803","","","","",NA,"","33803","33803",-81.9796142,28.000639
127954019,"","","Florida Medical Training Institute - Tampa","Lincoln Technical Institute - Edison","127954","Additional Location","3611 Hillsborough Avenue, Suite 216, Tampa, FL 33614","","","","",NA,"12/31/2014 0:00","33614","33614",-82.5026267,27.9974169
132781007,"","","St. Petersburg Site","Utica College","132781","Additional Location","9400 4th Street North Suite 100, St. Petersburg, FL 33702","","","","",NA,"","33702","33702",-82.6391844,27.8580754
134246002,"","","Southeastern Baptist Theological Seminary Tampa","Southeastern Baptist Theological Seminary","134246","Additional Location","18333 Exciting Idlewild Boulevard, Lutz, FL 33548","","","","",NA,"","33548","33548",-82.4905701,28.1317002
139506016,"1054215","491136","Empire Beauty School","Empire Beauty School - Wyoming Valley","139506","Additional Location","Brandon Crossings, 10083 East Adamo Drive, Tampa, FL 33619","","","","",NA,"","33619","33619",-82.3380768,27.9421472
139621035,"","","Gannon University at Ruskin","Gannon University","139621","Additional Location","105 Commercial Center Drive, Ruskin, FL 33570","","","","",NA,"","33570","33570",-82.378889,27.711005
141051003,"","","Pittsburgh Theological Seminary - Eckerd College","Pittsburgh Theological Seminary","141051","Additional Location","4200 54th Avenue South, St. Petersburg, FL 33711","","","","",NA,"","33711","33711",-82.6864615,27.7147288
143525001,"350200","","Lincoln Memorial University - Tampa","Lincoln Memorial University","143525","Additional Location","3102 East 138th Street, Tampa, FL 33613","","","","",NA,"","33613","33613",-82.4233891,28.0739516
144786006,"","","Dallas Theological Seminary - Tampa Bay Extension","Dallas Theological Seminary","144786","Additional Location","6202 N. Himes, Tampa, FL 33614","","","","",NA,"6/7/2016 0:00","33614","33614",-82.5015575,28.0041881
150969007,"","","Sistema Universitario Ana G Mendez - Universidad Metropolitana - Tampa Branch Campus","Universidad Ana G. Mendez ? Cupey Campus","150969","Additional Location","3655 West Waters Avenue, Tampa, FL 33614","","","","",NA,"","33614","33614",-82.5025862,28.0285336
151494009,"","","Sistema Universitario Ana G. Mendez Universidad del Este - Tampa Branch Campus","Universidad Ana G. Mendez ? Carolina Campus","151494","Additional Location","3655 West Waters Avenue, Tampa, FL 33614","","","","",NA,"","33614","33614",-82.5025862,28.0285336
151582009,"","","Sistema Universitario Ana G Mendez - Universidad Del Turabo - Tampa Branch Campus","Universidad Ana G. Mendez ? Gurabo Campus","151582","Additional Location","3655 West Waters Avenue, Tampa, FL 33614","","","","",NA,"","33614","33614",-82.5025862,28.0285336
152761,"3096300","250498","Fortis Institute - Mulberry","-","-","Institution","5925 Imperial Parkway, Suite 200, Mulberry, FL 33860","8636461400","Joseph W Marino Sr","8636461400","jwmarino@marcogrp.com",8636465236,"","33860","33860",-81.98583,27.93696
154369003,"","","Southern Technical College at Tampa","Southern Technical College at Fort Myers","154369","Additional Location","3910 Riga Blvd., Tampa, FL 33619","","","","",NA,"","33619","33619",-82.3476681,27.9795612
154776,"2601600","367875","Brewster Technical College","-","-","Institution","2222 North Tampa Street, Tampa, FL 33602-2196","8132765448","Paul Gansemer","8132765464, ext. 282","paul.gansemer@sdhc.k12.fl.us",NA,"","33602-2196","33602",-82.4617575,27.9643686
154794,"3459400","367893","St Petersburg Theological Seminary","-","-","Institution","10830 Navajo Dr, St. Petersburg, FL 33708-3116","7273990276","DR. MYRON MILLER","7273990276","",NA,"","33708-3116","33708",-82.7901014,27.8132937
155177,"559400","369419","Erwin Technical College","-","-","Institution","2010 E Hillsborough Ave, Tampa, FL 33612","8132311903","MICHAEL D DONOHUE","8132388631","",NA,"","33612","33612",-82.438432,27.9976376
155177002,"","","D.G. Erwin Technical Center at Middleton High School","Erwin Technical College","155177","Additional Location","4801 N. 22nd Street, Tampa, FL 33610","","","","",NA,"","33610","33610",-82.4335256,27.989891
155177003,"","","D.G. Erwin Technical Center at Tampa Bay Technical High School","Erwin Technical College","155177","Additional Location","6410 Orient Road, Tampa, FL 33610","","","","",NA,"","33610","33610",-82.3745854,28.0085172
155177004,"","","Erwin Technical College, East Campus","Erwin Technical College","155177","Additional Location","7010 North Manhattan Avenue, Tampa, FL 33614","","","","",NA,"","33614","33614",-82.5183723,28.0132824
155177005,"","","Erwin Technical College, South","Erwin Technical College","155177","Additional Location","620 E. 7th Avenue, Tampa, FL 33602","","","","",NA,"","33602","33602",-82.4531183,27.9606615
155663,"2524000","372718","Sunstate Academy","-","-","Institution","2525 Drew St, Clearwater, FL 33765-2702","7275383827","GAYL SIMON","7275383827","gayl@llc.net",7275396118,"","33765-2702","33765",-82.7327333,27.9670998
156912,"3816300","378886","Artistic Nails and Beauty Academy","-","-","Institution","4951 Adamo Drive, Suite 120, Tampa, FL 33605","8136544529, ext. 201","ROBERT ROSENBERG","8136544529, ext. 204","",8136531728,"","33605","33605",-82.4030285,27.9514081
156921,"3035900","378956","National Aviation Academy","-","-","Institution","6225 Ulmerton Road, Clearwater, FL 33760","7275312080, ext. 24","Pam Van Sant","7275312080, ext. 21","",7275358727,"3/13/2019 0:00","33760","33760",-82.7217894,27.8948589
156921001,"","","National Aviation Academy","National Aviation Academy","156921","Additional Location","14403 Airport Parkway, Clearwater, FL 33762","","","","",NA,"","33762","33762",-82.6921334,27.9025578
157146004,"2531805","449959","Paul Mitchell the School Tampa","Paul Mitchell the School - Provo","157146","Additional Location","7823 Citrus Park Town Center Mall, Tampa, FL 33625","","","","",NA,"","33625","33625",-82.5744548,28.0687543
159179,"2314100","404338","Schiller International University","-","-","Institution","400 North Tampa Street, Tampa, FL 33602","7277365082, ext. 221","Mr. Allan Alvarez","7277365082, ext. 234","Allan.Alvarez@schiller.edu",7277388405,"12/4/2020 0:00","33602","33602",-82.4590704,27.9477653
159249004,"2616401","379029","Sanford-Brown Institute - Tampa","Sanford-Brown College at Jacksonville","159249","Additional Location","5701 E. Hillsborough Ave., Suite 1417, Tampa, FL 33610-5428","","","","",NA,"5/5/2014 0:00","33610-5428","33610",-82.3906908,27.9924773
160108002,"","","Lake Erie College of Osteopathic Medicine - Bradenton","Lake Erie College of Osteopathic Medicine","160108","Additional Location","5000 Lakewood Ranch Boulevard, Bradenton, FL 34211","","","","",NA,"","34211","34211",-82.4333043,27.4518653
160108005,"","","LECOM College of Dental Medicine","Lake Erie College of Osteopathic Medicine","160108","Site","4800 Lakewood Ranch Boulevard, Bradenton, FL 34211","","","","",NA,"","34211","34211",-82.4328053,27.4553529
163897003,"","","National Defense University at Joint Forces Staff College","National Defense University","163897","Additional Location","6701 South Dale Mabry Highway, Tampa, FL 33621","","","","",NA,"","33621","33621",-82.5076324,27.8699402
166744,"758604","436474","Remington College-Largo Campus","-","-","Institution","8550 Ulmerton Rd Unit 100, Largo, FL 33771-3842","7275321999","Edna Higgins","7275321999, ext. 202","edna.higgins@remingtoncollege.edu",7275307710,"","33771-3842","33771",-82.7574332,27.8917917
167659,"3008603","438294","Florida College of Natural Health","-","-","Institution","616  67th Street Circle East, Bradenton, FL 34208","9419548999","MELISSA WADE","9419548999","mwade@fcnh.com",NA,"","34208","34208",-82.4775466,27.4948918
168209002,"3390301","454263","Lincoln Technical Institute - Seminole","Lincoln Technical Institute - Fern Park","168209","Additional Location","8800 Park Boulevard, Seminole, FL 33777","","","","",NA,"12/31/2012 0:00","33777","33777",-82.7610804,27.8384951
169716002,"3549301","450173","Ultimate Medical Academy - Tampa","Ultimate Medical Academy - Clearwater","169716","Additional Location","9309 North Florida Avenue, Tampa, FL 33612","","","","",NA,"","33612","33612",-82.4567431,28.0359662
169716003,"","","Ultimate Medical Academy-Online","Ultimate Medical Academy - Clearwater","169716","Additional Location","9309 N. Florida Avenue, Tampa, FL 33612","","","","",NA,"1/4/2022 0:00","33612","33612",-82.4567431,28.0359662
169743003,"","","Tampa Bay Beauty Institute","Jacksonville Beauty Institute","169743","Additional Location","5016 East Busch Boulevard #103, Tampa, FL 33617","","","","",NA,"1/1/1900 0:00","33617","33617",-82.4010132,28.0337912
169804039,"","","National Graduate School of Quality Management at U.S. Coast Guard Air Station, Clearwater","National Graduate School of Quality Management, Inc.","169804","Additional Location","15100 Rescue Way, Clearwater, FL 33762","","","","",NA,"","33762","33762",-82.6949018,27.9120896
176992,"","","Career Institute of Florida","-","-","Institution","877 Executive Drive West, Suite 108, St. Petersburg, FL 33702","","","7275769597","",NA,"","33702","33702",-82.6754585,27.894775
185299025,"","","Herzing University ? Tampa","Herzing University","185299","Additional Location","3632 Queens Palms Drive, Tampa, FL 33610","","","","",NA,"","33610","33610",-82.3358103,27.976396
185952,"2245504","447360","Fortis College - Largo","-","-","Institution","6565 Ulmerton Road, Largo, FL 33771","","","","",NA,"","33771","33771",-82.7273752,27.8947749
187514005,"","","Southern Technical College - Brandon","Southern Technical College","187514","Additional Location","608 East Bloomingdale Avenue, Brandon, FL 33511","","","","",NA,"","33511","33511",-82.2744968,27.8943758
188711011,"","","Jersey College","Jersey College","188711","Additional Location","3625 Queen Palm Drive, Tampa, FL 33619","","","","",NA,"3/2/2020 0:00","33619","33619",-82.3375681,27.9750641
189097,"4225800","485351","Learey Technical College","-","-","Institution","5410 North 20th Street, Tampa, FL 33610","8137692123","Dr. Tim Binder","","tim.binder@sdhc.k12.fl.us",NA,"2/19/2018 0:00","33610","33610",-82.4371842,27.9967762
189097004,"","","Learey Technical Center at Erwin Technical Center","Learey Technical College","189097","Additional Location","2010 E. Hillsborough Avenue, Tampa, FL 33610","","","","",NA,"","33610","33610",-82.438432,27.9976376
189097005,"","","Learey Technical Center","Learey Technical College","189097","Additional Location","116 South 34th Street, Tampa, FL 33605","","","","",NA,"","33605","33605",-82.421039,27.9463481
189097006,"","","Learey Technical Center at Worforce Tampa Bay","Learey Technical College","189097","Additional Location","9215 N. Florida Avenue, Suite 110A, Tampa, FL 33612","","","","",NA,"","33612","33612",-82.457241,28.033721
189097007,"","","Learey Technical College,","Learey Technical College","189097","Additional Location","10119 E. Ellicott Street, Tampa, FL 33610","","","","",NA,"","33610","33610",-82.3323864,27.9907069
189334,"","","New Dimension Academy of Beauty","-","-","Institution","4551 Gunn Highway, Tampa, FL 33624","","","","",NA,"","33624","33624",-82.5191545,28.0499974
190406,"4016500","447883","American Institute of Beauty","-","-","Institution","3665 East Bay Drive #164, Largo, FL 33771","","","","",NA,"2/17/2009 0:00","33771","33771",-82.7491266,27.9150364
190406002,"","","American Institute of Beauty - St. Petersburg","American Institute of Beauty","190406","Additional Location","2800 34th Street North, St. Petersburg, FL 33713","","","","",NA,"","33713","33713",-82.6800903,27.7970336
192013,"4132100","454430","FastTrain College - Tampa","-","-","Institution","2156 University Square Mall, Tampa, FL 33612","","","","",NA,"6/30/2012 0:00","33612","33612",-82.4352038,28.0570986
195340,"","","Anne Brezina Dietetic Internship at James A. Haley Veterans Hospital","-","-","Site","13000 N. Bruce B. Downs Boulevard, Tampa, FL 33612-4745","8139722000","","","",NA,"","33612-4745","33612",-82.4265111,28.0654077
198048002,"","","Shear Excellence Hair Academy","Shear Excellence Hair Academy","198048","Additional Location","3244 Lithia Pinecrest Rd., Valrico, FL 33594","","","","",NA,"","33594","33594",-82.2459361,27.8960273
198048003,"","","Shear Excellence Hair Academy","Shear Excellence Hair Academy","198048","Additional Location","2800 North Mac Dill Ave, Tampa, FL 33607","","","","",NA,"","33607","33607",-82.4935919,27.9654502
199661024,"","","ELS Language Centers - St. Petersburg","ELS Language Centers","199661","Additional Location","4200 54th Avenue, South, St. Petersburg, FL 33711","","","","",NA,"","33711","33711",-82.6864615,27.7147288
199661055,"","","ELS Language Centers - Tampa","ELS Language Centers","199661","Additional Location","701 W. Kennedy Blvd., Tampa, FL 33606","","","","",NA,"","33606","33606",-82.4677965,27.9462843
204592031,"","","Kaplan Test Prep","Kaplan Medical Prep","204592","Additional Location","5405 E. Fowler Avenue, Temple Terrace, FL 33617","","","","",NA,"12/16/2015 0:00","33617","33617",-82.3946821,28.0533389
205708002,"","","Florida Hospital Tampa","Florida Hospital","205708","Additional Location","3100 E Fletcher Avenue, MAC Suite 271, Tampa, FL 33613","","","","",NA,"","33613","33613",-82.4234311,28.0713627
210012035,"","","Rasmussen College ? Tampa/Brandon","Rasmussen University","210012","Additional Location","Highland Oaks IV, 4042 Park Oaks Blvd., 4th Floor, Tampa, FL 33610","","","","",NA,"4/29/2010 0:00","33610","33610",-82.3340831,27.9822537
210012036,"","","Rasmussen University - Tampa/Brandon","Rasmussen University","210012","Additional Location","330 Brandon Town Center Drive, Brandon, FL 33511","","","","",NA,"","33511","33511",-82.3282969,27.9368845
211884,"","","Southeastern College","-","-","Institution","16120 US Highwy 19 North, Clearwater, FL 33764","7275766500","","","",NA,"","33764","33764",-82.7315328,27.9193012
213136,"4163000","457420","Summit Salon Academy","-","-","Institution","4802 Gunn Highway, Ste 144, Tampa, FL 33624","","","","",NA,"","33624","33624",-82.5253148,28.0518332
215521,"","","Meridian Career Institute - Tampa","-","-","Institution","9503 Princess Palm Avenue, Tampa, FL 33619","9413774880","","","",NA,"","33619","33619",-82.3403569,27.9793296
217527,"","","Chapter's Health System","-","-","Institution","12973 N. Telecom Parkway, Suite 100, Temple Terrace, FL 33637","8138718209","","","",NA,"","33637","33637",-82.3721763,28.0652721
218502,"","","The Players School of Music","-","-","Institution","923 McMullen Booth Road, Clearwater, FL 33759","7277251445","","","",NA,"","33759","33759",-82.708294,27.9736669
219435,"4204600","483674","Beauty and Health Institute","-","-","Institution","11309 Countryway Boulevard, Tampa, FL 33626","8137491888","","","",NA,"","33626","33626",-82.624937,28.0639719
219754,"","","Institute of Technology - Tampa","-","-","Institution","4311 W. Waters Avenue, Suite 600, Tampa, FL 33614","","","","",NA,"","33614","33614",-82.5152721,28.0261385
221786,"","","Bay Pines VA Medical Center","-","-","Site","P.O. Box 5005, Bay Pines, FL 33744","","","","",NA,"","33744","33744",-82.771961,27.8059583
221944018,"2179909","428268","Argosy University - Tampa Campus","Argosy University","221944","Additional Location","1403 North Howard Avenue, Tampa, FL 33607","","","","",NA,"","33607","33607",-82.4823405,27.9551925
221944029,"","","Florida School of Professional Psychology at Argosy University","Argosy University","221944","Additional Location","1403 North Howard Avenue, Tampa, FL 33607","","","","",NA,"","33607","33607",-82.4823405,27.9551925
228723,"4194200","485342","Aparicio-Levy Technical Center","-","-","Institution","10119 East Ellicott Street, Tampa, FL 33610","8137404884","Dr. James Goode","","james.goode@sdhc.k12.fl.us",NA,"","33610","33610",-82.3323864,27.9907069
228723001,"","","Aparicio-Levy Technical College, Hillsborough County Fire Rescue","Aparicio-Levy Technical Center","228723","Additional Location","9450 E. Columbus Drive, Tampa, FL 33619","","","","",NA,"","33619","33619",-82.3458513,27.9672857
228723002,"","","Aparicio-Levy Technical College, Erwin Technical College","Aparicio-Levy Technical Center","228723","Additional Location","2010 E. Hillsborough Avenue, Tampa, FL 33610","","","","",NA,"","33610","33610",-82.438432,27.9976376
228723003,"","","Aparicio-Levy Technical College, Tampa Fire Rescue","Aparicio-Levy Technical Center","228723","Additional Location","116 S. 34th Street, Tampa, FL 33605","","","","",NA,"","33605","33605",-82.421039,27.9463481
228918,"","","Florida Institute of Traditional Chinese Medicine","-","-","Institution","5335 66th Street, North St. Petersburg, FL 33709","","","","",NA,"11/18/2002 0:00","33709","33709",-82.7278979,27.8197748
230375003,"4119400","451149","Aveda Institute St. Petersburg","Aveda Institute South Florida","230375","Additional Location","235 Third Street South, St. Petersburg, FL 33709","","","","",NA,"","33709","33709",-82.6374136,27.7688399
230375004,"","","Aveda Institute - Brandon","Aveda Institute South Florida","230375","Additional Location","1516 West Brandon Boulevard, Brandon, FL 33511","","","","",NA,"","33511","33511",-82.3072861,27.9391028
232399,"","","The Center for Guided Montessori Studies","-","-","Institution","4532 West Kennedy Blvd. Suite 233, Tampa, FL 33609","9418701945","","","info@cgms.edu",NA,"1/28/2020 0:00","33609","33609",-82.5214904,27.9445318
232645,"","","International Academy of English- Tampa","-","-","Institution","6302 East Dr. Martin Luther King Jr Blvd, Suite 490, Suite 115 A, Tampa, FL 33619","","","","",NA,"4/3/2022 0:00","33619","33619",-82.3856978,27.9839403
232973002,"","","Tampa Bay Campus","Ana G. Mendez University","232973","Additional Location","3655 W Waters Ave.,, Tampa, FL 33614","","","","",NA,"","33614","33614",-82.5025862,28.0285336
234483022,"","","DeVry University - Tampa Bay Center","DeVry University","234483","Additional Location","Rocky Point Center, 3030 N Rocky Point Dr. W, Ste 100, Tampa, FL 33607","","","","",NA,"","33607","33607",-82.5697068,27.968689
234483033,"","","Verizon Wireless - Tampa, FL","DeVry University","234483","Additional Location","10424 N Dale Mabry H, Tampa, FL 33618","","","","",NA,"","33618","33618",-82.5051586,28.0459604
234483137,"","","DeVry University - Tampa Bay","DeVry University","234483","Additional Location","5540 W Executive Drive, Suite 100, Tampa, FL 33609","","","","",NA,"","33609","33609",-82.5376341,27.9464429
234483138,"","","DeVry University - Tampa East Center","DeVry University","234483","Additional Location","6700 Lakeview Center Dr., Ste 150, Tampa, FL 33619","","","","",NA,"","33619","33619",-82.3836862,27.9783607
234809047,"","","Becker Professional Education - Tampa","Becker Professional Development Corporation","234809","Additional Location","1300 N. Westshore Blvd., Suite 135, Tampa, FL 33607","","","","",NA,"","33607","33607",-82.5247563,27.9545469
235088,"","","Tampa Language Center","-","-","Institution","9309 North Florida Ave., Suite 109, Tampa, FL 33612","","","","",NA,"8/7/2016 0:00","33612","33612",-82.4577006,28.0346684
235440,"","","Nova Southeastern University - Tampa","-","-","Site","3400 Gulf-to-Bay Blvd, Tampa, FL 33759","","","","",NA,"12/3/2021 0:00","33759","33759",-82.6976472,27.9642297
236498,"","","Everest University Online - Tampa","-","-","Institution","10117 Princess Palm Avenue, Tampa, FL 33584","","","","",NA,"","33584","33584",-82.3335381,27.9789425
237695127,"","","Dale Carnegie Training - Rick J. Gallegos & Associates","Dale Carnegie & Associates, Inc.","237695","Additional Location","1408 N. Westshore Blvd., Suite 912, Tampa, FL 33607","","","","",NA,"","33607","33607",-82.5255601,27.9553378
237826,"4249400","488226","Center for Neurosomatic Therapy","-","-","Institution","13825 Icot Blvd #604, Clearwater, FL 33760","","","","",NA,"1/30/2015 0:00","33760","33760",-82.7146217,27.8977046
238306,"153400","137801","Altierus Career College","-","-","Institution","3319 W Hillsborough Ave, Tampa, FL 33614","8138796000","","","",NA,"1/24/2020 0:00","33614","33614",-82.4975927,27.9968479
238306008,"153408","260293","Everest University - Brandon","Altierus Career College","238306","Additional Location","3924 Coconut Palm Drive, Tampa, FL 33619-1354","","","","",NA,"","33619-1354","33619",-82.3505077,27.9803097
238306010,"2599800","137810","Everest University - Pinellas","Altierus Career College","238306","Additional Location","1199 East Bay Drive, Largo, FL 33770","","","","",NA,"","33770","33770",-82.7758504,27.9152817
239132,"4254600","490179","Medical Prep Institute","-","-","Institution","2304 Busch Boulevard, Tampa, FL 33613","8139321710","","","",NA,"8/3/2015 0:00","33613","33613",-82.4328837,28.0332
240134,"","","Bay Pines VA Healthcare System","-","-","Site","10000 Bay Pines Blvd, Bay Pines, FL 33744","","","","",NA,"","33744","33744",-82.7801731,27.8095552
240851005,"3031400","134680","Sanford-Brown College Online","Sanford-Brown College","240851","Additional Location","3725 W. Grace Street, Suite 237, Tampa, FL 33607","","","","",NA,"","33607","33607",-82.5012403,27.9531298
240851007,"3031400","456296","Sanford-Brown College","Sanford-Brown College","240851","Additional Location","3725 West Grace Street, Suite 100, Tampa, FL 33607","","","","",NA,"","33607","33607",-82.5046148,27.9532197
242945,"","","Aguilas International Technical Institute","-","-","Institution","7520 West Waters Avenue, Suite 19, Tampa, FL 33615","","","","",NA,"","33615","33615",-82.5635549,28.0241852
244297,"","","Newsom Eye","-","-","Site","13904 N Dale Mabry Hwy, #200, Tampa, FL 33618","","","","",NA,"","33618","33618",-82.5078074,28.0729942
244534,"","","Johns Hopkins All Children?s Hospital","-","-","Institution","880 6th Street South Suite 420, Saint Petersburg, FL 33702","","","","",NA,"","33702","33702",-82.6412016,27.761434
245856,"","","inlingua Florida Tampa","-","-","Institution","204 S. Hoover Blvd.  Suite 170, Tampa, FL 33609","","","","",NA,"","33609","33609",-82.5336822,27.9421008
246275,"","","Career Tech","-","-","Institution","2219 West Memorial Blvd., Lakeland, FL 33815","8135273636","Chandra Prashad","","jprashadcdlschool@gmail.com",NA,"1/10/2020 0:00","33815","33815",-81.9914386,28.0553442
247904,"","","Open Hearts Language Academy (OHLA) Tampa","-","-","Institution","6800 N Dale Mabry Hwy #124, Tampa, FL 33614","","","","",NA,"","33614","33614",-82.5061112,28.0082707
251242,"","","Dolly Monroe Beauty Academy","-","-","Institution","10359 Cross Creek Blvd Suite E, Tampa, FL 33647","","","","",NA,"","33647","33647",-82.3128504,28.1440939
252111003,"","495420","Arizona College of Nursing","Arizona College of Nursing","252111","Additional Location","1411 N West Shore Blvd., Suite 200, Tampa, FL 33607","","","","",NA,"8/22/2020 0:00","33607","33607",-82.523394,27.9556028
252111009,"","","Arizona College of Nursing","Arizona College of Nursing","252111","Additional Location","8043 Cooper Creek Blvd., University Park, FL 34201","","","","",NA,"","34201","34201",-82.4551209,27.406143
253008,"","","Polk State College","-","-","Institution","3515 Aviation Drive, Lakeland, FL 33811","","","","",NA,"","33811","33811",-82.0161051,27.9779678
254481,"","","Ugarit Linguistic Institute","-","-","Institution","4809 E. Busch Blvd #102/103, Tampa, FL 33617","","","","",NA,"","33617","33617",-82.4077643,28.032221
254719,"","","Bradenton VA Outpatient Clinic","-","-","Site","5520 State Road 64, Suite 101, Bradenton, FL 34208","","","","",NA,"","34208","34208",-82.4926191,27.4929691
254728,"","","Bradenton VA Outpatient Clinic","-","-","Site","5520 State Road 64, Suite 101, Bradenton, FL 34208","","","","",NA,"","34208","34208",-82.4926191,27.4929691
